NORAD_CAT_ID,OBJECT_NAME,OBJECT_TYPE,EPOCH,MEAN_MOTION,ECCENTRICITY,INCLINATION,RA_OF_ASC_NODE,ARG_OF_PERICENTER,MEAN_ANOMALY,BSTAR,MEAN_MOTION_DOT,MEAN_MOTION_DDOT,TLE_LINE0,TLE_LINE1,TLE_LINE2,SEMIMAJOR_AXIS,PERIOD,APOGEE,PERIGEE,DECAYED
55308.0,STARLINK-5292,PAYLOAD,2024-06-29 05:45:47,14.9833692,0.0002891,70.0003,123.8232,267.3247,92.7581,5.3138e-05,5.41e-06,0.0,0 STARLINK-5292,1 55308U 23010AR  24181.24013711  .00000541  00000-0  53138-4 0  9996,2 55308  70.0003 123.8232 0002891 267.3247  92.7581 14.98336920 80819,6950.171,96.107,574.046,570.027,0.0
55308.0,STARLINK-5292,PAYLOAD,2024-06-29 13:46:28,14.98327351,0.0002798,70.0003,122.9813,275.0223,85.0617,-3.3249e-05,-4.9e-06,0.0,0 STARLINK-5292,1 55308U 23010AR  24181.57394594 -.00000490  00000-0 -33249-4 0  9999,2 55308  70.0003 122.9813 0002798 275.0223  85.0617 14.98327351 82051,6950.201,96.107,574.011,570.121,0.0
55308.0,STARLINK-5292,PAYLOAD,2024-06-29 20:11:01,14.98316062,0.0003072,69.9985,122.3034,270.572,89.5087,-4.8138e-05,-6.67e-06,0.0,0 STARLINK-5292,1 55308U 23010AR  24181.84099321 -.00000667  00000-0 -48138-4 0  9998,2 55308  69.9985 122.3034 0003072 270.5720  89.5087 14.98316062 80903,6950.236,96.108,574.236,569.966,0.0
55308.0,STARLINK-5292,PAYLOAD,2024-06-29 21:47:10,14.98314327,0.000308,69.9985,122.1357,270.8182,89.2624,-6.5433e-05,-8.73e-06,0.0,0 STARLINK-5292,1 55308U 23010AR  24181.90775531 -.00000873  00000-0 -65433-4 0  9995,2 55308  69.9985 122.1357 0003080 270.8182  89.2624 14.98314327 82103,6950.241,96.108,574.247,569.966,0.0
55308.0,STARLINK-5292,PAYLOAD,2024-06-30 13:48:30,14.98329539,0.0003034,69.9998,120.4557,272.3777,87.7035,-1.1835e-05,-2.34e-06,0.0,0 STARLINK-5292,1 55308U 23010AR  24182.57534835 -.00000234  00000-0 -11835-4 0  9997,2 55308  69.9998 120.4557 0003034 272.3777  87.7035 14.98329539 82207,6950.194,96.107,574.168,569.951,0.0
55308.0,STARLINK-5292,PAYLOAD,2024-06-30 20:13:02,14.98331581,0.0003158,69.9996,119.7829,273.5058,86.574,7.0847e-05,7.52e-06,0.0,0 STARLINK-5292,1 55308U 23010AR  24182.84238484  .00000752  00000-0  70847-4 0  9999,2 55308  69.9996 119.7829 0003158 273.5058  86.5740 14.98331581 81052,6950.188,96.107,574.248,569.858,0.0
55308.0,STARLINK-5292,PAYLOAD,2024-06-30 21:49:09,14.98332965,0.0003148,69.9997,119.6144,273.4284,86.6514,8.7177e-05,9.47e-06,0.0,0 STARLINK-5292,1 55308U 23010AR  24182.90914350  .00000947  00000-0  87177-4 0  9999,2 55308  69.9997 119.6144 0003148 273.4284  86.6514 14.98332965 82251,6950.184,96.107,574.237,569.861,0.0
55308.0,STARLINK-5292,PAYLOAD,2024-07-01 04:13:41,14.98343544,0.0003109,69.9996,118.9408,272.5616,87.5187,0.00010756,1.191e-05,0.0,0 STARLINK-5292,1 55308U 23010AR  24183.17617545  .00001191  00000-0  10756-3 0  9995,2 55308  69.9996 118.9408 0003109 272.5616  87.5187 14.98343544 81105,6950.151,96.106,574.177,569.855,0.0
55308.0,STARLINK-5292,PAYLOAD,2024-07-01 05:49:49,14.98345248,0.0003103,69.9997,118.7724,272.4743,87.6061,0.00012724,1.426e-05,0.0,0 STARLINK-5292,1 55308U 23010AR  24183.24293336  .00001426  00000-0  12724-3 0  9999,2 55308  69.9997 118.7724 0003103 272.4743  87.6061 14.98345248 82307,6950.146,96.106,574.167,569.854,0.0
55308.0,STARLINK-5292,PAYLOAD,2024-07-01 21:51:11,14.98322037,0.0002921,70.0004,117.0893,274.9155,85.167,0.0001639,1.863e-05,0.0,0 STARLINK-5292,1 55308U 23010AR  24183.91054633  .00001863  00000-0  16390-3 0  9996,2 55308  70.0004 117.0893 0002921 274.9155  85.1670 14.98322037 81218,6950.218,96.108,574.113,570.052,0.0
55308.0,STARLINK-5292,PAYLOAD,2024-07-02 12:16:23,14.98327299,0.0003043,70.0005,115.574,273.2267,86.8544,7.1657e-05,7.62e-06,0.0,0 STARLINK-5292,1 55308U 23010AR  24184.51138566  .00000762  00000-0  71657-4 0  9996,2 55308  70.0005 115.5740 0003043 273.2267  86.8544 14.98327299 82499,6950.201,96.107,574.181,569.951,0.0
55308.0,STARLINK-5292,PAYLOAD,2024-07-02 21:53:12,14.98330609,0.0002913,70.0008,114.5656,269.1185,90.964,-9.9061e-05,-1.275e-05,0.0,0 STARLINK-5292,1 55308U 23010AR  24184.91194818 -.00001275  00000-0 -99061-4 0  9993,2 55308  70.0008 114.5656 0002913 269.1185  90.9640 14.98330609 82554,6950.191,96.107,574.081,570.031,0.0
55308.0,STARLINK-5292,PAYLOAD,2024-07-03 04:17:44,14.98333829,0.0002842,70.0007,113.8925,266.0126,94.0708,-6.0308e-05,-8.13e-06,0.0,0 STARLINK-5292,1 55308U 23010AR  24185.17898444 -.00000813  00000-0 -60308-4 0  9997,2 55308  70.0007 113.8925 0002842 266.0126  94.0708 14.98333829 81406,6950.181,96.107,574.021,570.071,0.0
55308.0,STARLINK-5292,PAYLOAD,2024-07-03 21:55:12,14.98330393,0.0002813,70.0005,112.0411,263.058,97.0259,3.5004e-05,3.25e-06,0.0,0 STARLINK-5292,1 55308U 23010AR  24185.91334224  .00000325  00000-0  35004-4 0  9991,2 55308  70.0005 112.0411 0002813 263.0580  97.0259 14.98330393 82705,6950.192,96.107,574.012,570.102,0.0
55308.0,STARLINK-5292,PAYLOAD,2024-07-04 04:19:45,14.98320992,0.0002993,70.0007,111.3674,266.7601,93.3216,0.00025501,2.95e-05,0.0,0 STARLINK-5292,1 55308U 23010AR  24186.18038249  .00002950  00000-0  25501-3 0  9995,2 55308  70.0007 111.3674 0002993 266.7601  93.3216 14.98320992 81551,6950.221,96.108,574.166,570.006,0.0
55308.0,STARLINK-5292,PAYLOAD,2024-07-04 12:20:24,14.98342563,0.000285,70.0006,110.5258,266.5787,93.5046,-0.00012427,-1.576e-05,0.0,0 STARLINK-5292,1 55308U 23010AR  24186.51417705 -.00001576  00000-0 -12427-3 0  9998,2 55308  70.0006 110.5258 0002850 266.5787  93.5046 14.98342563 81601,6950.154,96.106,574.0,570.038,0.0
55308.0,STARLINK-5292,PAYLOAD,2024-07-04 20:21:05,14.98330197,0.0002744,70.0005,109.6841,268.291,91.7934,6.4032e-05,6.71e-06,0.0,0 STARLINK-5292,1 55308U 23010AR  24186.84798034  .00000671  00000-0  64032-4 0  9994,2 55308  70.0005 109.6841 0002744 268.2910  91.7934 14.98330197 81657,6950.192,96.107,573.964,570.15,0.0
55308.0,STARLINK-5292,PAYLOAD,2024-07-04 21:57:13,14.98329576,0.0002751,70.0004,109.5158,268.2771,91.8073,5.6618e-05,5.83e-06,0.0,0 STARLINK-5292,1 55308U 23010AR  24186.91474088  .00000583  00000-0  56618-4 0  9995,2 55308  70.0004 109.5158 0002751 268.2771  91.8073 14.98329576 82856,6950.194,96.107,573.971,570.147,0.0
55308.0,STARLINK-5292,PAYLOAD,2024-07-05 12:22:26,14.98332055,0.0002814,70.0003,107.9987,269.507,90.5767,-2.7978e-05,-4.27e-06,0.0,0 STARLINK-5292,1 55308U 23010AR  24187.51558004 -.00000427  00000-0 -27978-4 0  9999,2 55308  70.0003 107.9987 0002814 269.5070  90.5767 14.98332055 82945,6950.187,96.107,574.007,570.096,0.0
55308.0,STARLINK-5292,PAYLOAD,2024-07-05 20:23:06,14.98325206,0.0002989,69.9996,107.157,269.0443,91.0373,-2.1485e-05,-3.49e-06,0.0,0 STARLINK-5292,1 55308U 23010AR  24187.84938379 -.00000349  00000-0 -21485-4 0  9992,2 55308  69.9996 107.1570 0002989 269.0443  91.0373 14.98325206 81808,6950.208,96.107,574.15,569.995,0.0
55308.0,STARLINK-5292,PAYLOAD,2024-07-05 21:59:14,14.98325158,0.0002974,69.9996,106.9886,269.0265,91.0554,-2.1314e-05,-3.47e-06,0.0,0 STARLINK-5292,1 55308U 23010AR  24187.91614408 -.00000347  00000-0 -21314-4 0  9993,2 55308  69.9996 106.9886 0002974 269.0265  91.0554 14.98325158 83002,6950.208,96.107,574.14,570.006,0.0
55308.0,STARLINK-5292,PAYLOAD,2024-07-06 12:24:27,14.9832959,0.0002817,70.0007,105.4744,268.2988,91.7848,-5.4834e-05,-7.47e-06,0.0,0 STARLINK-5292,1 55308U 23010AR  24188.51698217 -.00000747  00000-0 -54834-4 0  9997,2 55308  70.0007 105.4744 0002817 268.2988  91.7848 14.98329590 83090,6950.194,96.107,574.017,570.101,0.0
55308.0,STARLINK-5292,PAYLOAD,2024-07-06 20:25:07,14.98326205,0.0002876,70.0001,104.633,267.9577,92.1252,-2.1036e-05,-3.44e-06,0.0,0 STARLINK-5292,1 55308U 23010AR  24188.85078337 -.00000344  00000-0 -21036-4 0  9990,2 55308  70.0001 104.6330 0002876 267.9577  92.1252 14.98326205 81958,6950.205,96.107,574.069,570.071,0.0
55308.0,STARLINK-5292,PAYLOAD,2024-07-06 22:01:15,14.98326447,0.0002862,70.0003,104.4648,268.2088,91.8743,-2.3464e-05,-3.73e-06,0.0,0 STARLINK-5292,1 55308U 23010AR  24188.91754345 -.00000373  00000-0 -23464-4 0  9996,2 55308  70.0003 104.4648 0002862 268.2088  91.8743 14.98326447 83159,6950.204,96.107,574.058,570.08,0.0
55308.0,STARLINK-5292,PAYLOAD,2024-07-07 04:25:47,14.98329295,0.0002958,70.0001,103.7922,267.5982,92.4839,1.3031e-05,6.2e-07,0.0,0 STARLINK-5292,1 55308U 23010AR  24189.18458087  .00000062  00000-0  13031-4 0  9992,2 55308  70.0001 103.7922 0002958 267.5982  92.4839 14.98329295 83196,6950.195,96.107,574.116,570.004,0.0
55308.0,STARLINK-5292,PAYLOAD,2024-07-07 20:27:08,14.98328499,0.0002969,70.0,102.1091,270.146,89.9359,7.2802e-05,7.76e-06,0.0,0 STARLINK-5292,1 55308U 23010AR  24189.85217935  .00000776  00000-0  72802-4 0  9994,2 55308  70.0000 102.1091 0002969 270.1460  89.9359 14.98328499 82101,6950.198,96.107,574.126,569.999,0.0
55308.0,STARLINK-5292,PAYLOAD,2024-07-08 10:52:20,14.98330279,0.0002933,70.0001,100.5942,270.3199,89.7624,3.8773e-05,3.7e-06,0.0,0 STARLINK-5292,1 55308U 23010AR  24190.45301821  .00000370  00000-0  38773-4 0  9999,2 55308  70.0001 100.5942 0002933 270.3199  89.7624 14.98330279 83384,6950.192,96.107,574.096,570.019,0.0
55308.0,STARLINK-5292,PAYLOAD,2024-07-08 20:29:09,14.9832757,0.0002853,70.0002,99.5843,271.7069,88.3763,1.9153e-05,1.36e-06,0.0,0 STARLINK-5292,1 55308U 23010AR  24190.85358093  .00000136  00000-0  19153-4 0  9997,2 55308  70.0002  99.5843 0002853 271.7069  88.3763 14.98327570 82258,6950.2,96.107,574.048,570.083,0.0
55308.0,STARLINK-5292,PAYLOAD,2024-07-08 22:05:17,14.98328501,0.0002837,70.0002,99.416,271.9081,88.1753,2.7025e-05,2.29e-06,0.0,0 STARLINK-5292,1 55308U 23010AR  24190.92034021  .00000229  00000-0  27025-4 0  9997,2 55308  70.0002  99.4160 0002837 271.9081  88.1753 14.98328501 83452,6950.198,96.107,574.034,570.091,0.0
55308.0,STARLINK-5292,PAYLOAD,2024-07-09 10:54:21,14.983428,0.0002744,70.0006,98.0688,273.8971,86.1874,-0.00025766,-3.167e-05,0.0,0 STARLINK-5292,1 55308U 23010AR  24191.45441708 -.00003167  00000-0 -25766-3 0  9995,2 55308  70.0006  98.0688 0002744 273.8971  86.1874 14.98342800 82349,6950.153,96.106,573.925,570.111,0.0
